ASTROCAST-0403          
1 55111U 23001DG  26068.82333059  .00013959  00000+0  51317-3 0  9990
2 55111  97.5604 161.3228 0004771 338.0704  22.0330 15.28004949129377
STARLINK-32870          
1 63018U 25032P   26068.13048659  .00023260  00000+0  85279-3 0  9994
2 63018  42.9983 339.2818 0000802 299.9578  60.1194 15.27553727 60537
